{
    "links": {
        "self": "http://www.neowsapp.com/rest/v1/neo/3746494?api_key=iIulBulltgU6a56xZRHN4H3l9WmuAYTsLGpBGhQ2"
    },
    "id": "3746494",
    "neo_reference_id": "3746494",
    "name": "(2016 EP86)",
    "designation": "2016 EP86",
    "nasa_jpl_url": "http://ssd.jpl.nasa.gov/sbdb.cgi?sstr=3746494",
    "absolute_magnitude_h": 20.7,
    "estimated_diameter": {
        "kilometers": {
            "estimated_diameter_min": 0.1925550782,
            "estimated_diameter_max": 0.4305662442
        },
        "meters": {
            "estimated_diameter_min": 192.5550781879,
            "estimated_diameter_max": 430.566244241
        },
        "miles": {
            "estimated_diameter_min": 0.1196481415,
            "estimated_diameter_max": 0.2675413778
        },
        "feet": {
            "estimated_diameter_min": 631.7424027221,
            "estimated_diameter_max": 1412.6189567557
        }
    },
    "is_potentially_hazardous_asteroid": false,
    "close_approach_data": [
        {
            "close_approach_date": "2016-05-11",
            "close_approach_date_full": "2016-May-11 10:35",
            "epoch_date_close_approach": 1462962900000,
            "relative_velocity": {
                "kilometers_per_second": "3.1288033651",
                "kilometers_per_hour": "11263.6921143243",
                "miles_per_hour": "6998.82024737"
            },
            "miss_distance": {
                "astronomical": "0.2776448884",
                "lunar": "108.0038615876",
                "kilometers": "41535083.921027708",
                "miles": "25808704.3830020504"
            },
            "orbiting_body": "Earth"
        },
        {
            "close_approach_date": "2042-05-08",
            "close_approach_date_full": "2042-May-08 17:28",
            "epoch_date_close_approach": 2283182880000,
            "relative_velocity": {
                "kilometers_per_second": "2.7779045176",
                "kilometers_per_hour": "10000.4562631865",
                "miles_per_hour": "6213.8946153116"
            },
            "miss_distance": {
                "astronomical": "0.2782780477",
                "lunar": "108.2501605553",
                "kilometers": "41629803.203678399",
                "miles": "25867560.2160599462"
            },
            "orbiting_body": "Earth"
        }
    ],
    "orbital_data": {
        "orbit_id": "42",
        "orbit_determination_date": "2017-04-06 08:27:33",
        "first_observation_date": "2016-03-06",
        "last_observation_date": "2016-07-11",
        "data_arc_in_days": 127,
        "observations_used": 208,
        "orbit_uncertainty": "4",
        "minimum_orbit_intersection": ".264172",
        "jupiter_tisserand_invariant": "3.361",
        "epoch_osculation": "2459000.5",
        "eccentricity": ".4745184774027669",
        "semi_major_axis": "2.397366372911621",
        "inclination": "4.836239516517652",
        "ascending_node_longitude": "165.0451127051581",
        "orbital_period": "1355.81377141758",
        "perihelion_distance": "1.259771731861005",
        "perihelion_argument": "62.88586374886188",
        "aphelion_distance": "3.534961013962238",
        "perihelion_time": "2458868.268653884451",
        "mean_anomaly": "35.11048906947286",
        "mean_motion": ".2655231917460165",
        "equinox": "J2000",
        "orbit_class": {
            "orbit_class_type": "AMO",
            "orbit_class_description": "Near-Earth asteroid orbits similar to that of 1221 Amor",
            "orbit_class_range": "1.017 AU < q (perihelion) < 1.3 AU"
        }
    },
    "is_sentry_object": false
}